KUIPER-00008            
1 63724U 25088A   26062.16668981 -.01578059  00000+0 -15443+0 0  9998
2 63724  51.8924 116.7822 0009538  72.3719 200.3580 14.95185305  5165
KUIPER-00009            
1 63725U 25088B   26061.62473302 -.00004140  00000+0 -51331-3 0  9994
2 63725  51.9029 137.8783 0008756  75.6640 284.5294 14.79970879 46737
KUIPER-00010            
1 63726U 25088C   26061.48193488  .00002221  00000+0  32020-3 0  9993
2 63726  51.9018 114.9654 0000523  71.4953 288.6066 14.79944180 46664
KUIPER-00011            
1 63727U 25088D   26062.18260951  .00004963  00000+0  67807-3 0  9998
2 63727  51.8997 119.4290 0000410  62.9997 297.1007 14.80024151 46797
KUIPER-00012            
1 63728U 25088E   26062.09805021 -.00010131  00000+0 -12738-2 0  9990
2 63728  51.9001 104.7309 0001405   6.2893 353.8087 14.80841110 46941
KUIPER-00013            
1 63729U 25088F   26061.62369929  .00003457  00000+0  48345-3 0  9996
2 63729  51.9009 139.3406 0002958  24.6745 335.4358 14.79831205 46529
KUIPER-00014            
1 63730U 25088G   26061.55452257  .00006834  00000+0  92376-3 0  9992
2 63730  51.9010 140.6183 0000366  23.4916 336.6063 14.79969732 46318
KUIPER-00015            
1 63731U 25088H   26061.64992204  .00007705  00000+0  95237-3 0  9991
2 63731  51.8990 149.6456 0009709  52.1816 308.0025 14.83560321 46659
KUIPER-00016            
1 63732U 25088J   26061.48432353  .00005429  00000+0  74135-3 0  9993
2 63732  51.8997 143.4592 0006523  55.0941 305.0633 14.79884692 46266
KUIPER-00018            
1 63733U 25088K   26062.16668981  .00060773  00000+0  78908-2 0  9992
2 63733  51.9016 129.4111 0004234  84.5938 246.6638 14.80132126  2763
KUIPER-00019            
1 63734U 25088L   26062.17318786 -.00000701  00000+0 -62931-4 0  9997
2 63734  51.9004 127.9117 0000610 114.7359 245.3667 14.79937809 46548
KUIPER-00020            
1 63735U 25088M   26061.62916616  .00002506  00000+0  35819-3 0  9990
2 63735  51.9012 134.3098 0006687  62.9051 297.2593 14.79876089 46615
KUIPER-00021            
1 63736U 25088N   26061.49253894  .00021576  00000+0  28485-2 0  9996
2 63736  51.9001 135.9098 0003354  67.9058 292.2261 14.79955913 46410
KUIPER-00023            
1 63737U 25088P   26062.16669192 -.00004969  00000+0 -62272-3 0  9996
2 63737  51.8998 134.3886 0008298  78.5241 281.6652 14.79927308 46791
KUIPER-00024            
1 63738U 25088Q   26062.18021860  .00000178  00000+0  52364-4 0  9991
2 63738  51.9021 121.8959 0000721  85.7187 274.3858 14.79933727 47097
KUIPER-00025            
1 63739U 25088R   26062.00002314  .00024631  00000+0  29878-2 0  9998
2 63739  51.9019 131.0999 0000141  59.2032 164.9649 14.83427556  4383
KUIPER-00027            
1 63740U 25088S   26062.17749156 -.00002623  00000+0 -31531-3 0  9999
2 63740  51.9011 124.3814 0000773  91.9670 268.1381 14.79916262 46658
