[{"OBJECT_NAME":"KUIPER-00008","OBJECT_ID":"2025-088A","EPOCH":"2026-03-03T04:00:01.999584","MEAN_MOTION":14.95185305,"ECCENTRICITY":0.0009538,"INCLINATION":51.8924,"RA_OF_ASC_NODE":116.7822,"ARG_OF_PERICENTER":72.3719,"MEAN_ANOMALY":200.358,"EPHEMERIS_TYPE":0,"CLASSIFICATION_TYPE":"U","NORAD_CAT_ID":63724,"ELEMENT_SET_NO":999,"REV_AT_EPOCH":516,"BSTAR":-0.15443,"MEAN_MOTION_DOT":-0.01578059,"MEAN_MOTION_DDOT":0},{"OBJECT_NAME":"KUIPER-00009","OBJECT_ID":"2025-088B","EPOCH":"2026-03-02T14:59:36.932928","MEAN_MOTION":14.79970879,"ECCENTRICITY":0.0008756,"INCLINATION":51.9029,"RA_OF_ASC_NODE":137.8783,"ARG_OF_PERICENTER":75.664,"MEAN_ANOMALY":284.5294,"EPHEMERIS_TYPE":0,"CLASSIFICATION_TYPE":"U","NORAD_CAT_ID":63725,"ELEMENT_SET_NO":999,"REV_AT_EPOCH":4673,"BSTAR":-0.00051331,"MEAN_MOTION_DOT":-4.14e-5,"MEAN_MOTION_DDOT":0},{"OBJECT_NAME":"KUIPER-00010","OBJECT_ID":"2025-088C","EPOCH":"2026-03-02T11:33:59.173632","MEAN_MOTION":14.7994418,"ECCENTRICITY":5.23e-5,"INCLINATION":51.9018,"RA_OF_ASC_NODE":114.9654,"ARG_OF_PERICENTER":71.4953,"MEAN_ANOMALY":288.6066,"EPHEMERIS_TYPE":0,"CLASSIFICATION_TYPE":"U","NORAD_CAT_ID":63726,"ELEMENT_SET_NO":999,"REV_AT_EPOCH":4666,"BSTAR":0.0003202,"MEAN_MOTION_DOT":2.221e-5,"MEAN_MOTION_DDOT":0},{"OBJECT_NAME":"KUIPER-00011","OBJECT_ID":"2025-088D","EPOCH":"2026-03-03T04:22:57.461664","MEAN_MOTION":14.80024151,"ECCENTRICITY":4.1e-5,"INCLINATION":51.8997,"RA_OF_ASC_NODE":119.429,"ARG_OF_PERICENTER":62.9997,"MEAN_ANOMALY":297.1007,"EPHEMERIS_TYPE":0,"CLASSIFICATION_TYPE":"U","NORAD_CAT_ID":63727,"ELEMENT_SET_NO":999,"REV_AT_EPOCH":4679,"BSTAR":0.00067807,"MEAN_MOTION_DOT":4.963e-5,"MEAN_MOTION_DDOT":0},{"OBJECT_NAME":"KUIPER-00012","OBJECT_ID":"2025-088E","EPOCH":"2026-03-03T02:21:11.538144","MEAN_MOTION":14.8084111,"ECCENTRICITY":0.0001405,"INCLINATION":51.9001,"RA_OF_ASC_NODE":104.7309,"ARG_OF_PERICENTER":6.2893,"MEAN_ANOMALY":353.8087,"EPHEMERIS_TYPE":0,"CLASSIFICATION_TYPE":"U","NORAD_CAT_ID":63728,"ELEMENT_SET_NO":999,"REV_AT_EPOCH":4694,"BSTAR":-0.0012738,"MEAN_MOTION_DOT":-0.00010131,"MEAN_MOTION_DDOT":0},{"OBJECT_NAME":"KUIPER-00013","OBJECT_ID":"2025-088F","EPOCH":"2026-03-02T14:58:07.618656","MEAN_MOTION":14.79831205,"ECCENTRICITY":0.0002958,"INCLINATION":51.9009,"RA_OF_ASC_NODE":139.3406,"ARG_OF_PERICENTER":24.6745,"MEAN_ANOMALY":335.4358,"EPHEMERIS_TYPE":0,"CLASSIFICATION_TYPE":"U","NORAD_CAT_ID":63729,"ELEMENT_SET_NO":999,"REV_AT_EPOCH":4652,"BSTAR":0.00048345,"MEAN_MOTION_DOT":3.457e-5,"MEAN_MOTION_DDOT":0},{"OBJECT_NAME":"KUIPER-00014","OBJECT_ID":"2025-088G","EPOCH":"2026-03-02T13:18:30.750048","MEAN_MOTION":14.79969732,"ECCENTRICITY":3.66e-5,"INCLINATION":51.901,"RA_OF_ASC_NODE":140.6183,"ARG_OF_PERICENTER":23.4916,"MEAN_ANOMALY":336.6063,"EPHEMERIS_TYPE":0,"CLASSIFICATION_TYPE":"U","NORAD_CAT_ID":63730,"ELEMENT_SET_NO":999,"REV_AT_EPOCH":4631,"BSTAR":0.00092376,"MEAN_MOTION_DOT":6.834e-5,"MEAN_MOTION_DDOT":0},{"OBJECT_NAME":"KUIPER-00015","OBJECT_ID":"2025-088H","EPOCH":"2026-03-02T15:35:53.264256","MEAN_MOTION":14.83560321,"ECCENTRICITY":0.00097097,"INCLINATION":51.899,"RA_OF_ASC_NODE":149.6456,"ARG_OF_PERICENTER":52.1816,"MEAN_ANOMALY":308.0025,"EPHEMERIS_TYPE":0,"CLASSIFICATION_TYPE":"U","NORAD_CAT_ID":63731,"ELEMENT_SET_NO":999,"REV_AT_EPOCH":4665,"BSTAR":0.0009523701,"MEAN_MOTION_DOT":7.705e-5,"MEAN_MOTION_DDOT":0},{"OBJECT_NAME":"KUIPER-00016","OBJECT_ID":"2025-088J","EPOCH":"2026-03-02T11:37:25.552992","MEAN_MOTION":14.79884692,"ECCENTRICITY":0.0006523,"INCLINATION":51.8997,"RA_OF_ASC_NODE":143.4592,"ARG_OF_PERICENTER":55.0941,"MEAN_ANOMALY":305.0633,"EPHEMERIS_TYPE":0,"CLASSIFICATION_TYPE":"U","NORAD_CAT_ID":63732,"ELEMENT_SET_NO":999,"REV_AT_EPOCH":4626,"BSTAR":0.00074135,"MEAN_MOTION_DOT":5.429e-5,"MEAN_MOTION_DDOT":0},{"OBJECT_NAME":"KUIPER-00018","OBJECT_ID":"2025-088K","EPOCH":"2026-03-03T04:00:01.999584","MEAN_MOTION":14.80132126,"ECCENTRICITY":0.0004234,"INCLINATION":51.9016,"RA_OF_ASC_NODE":129.4111,"ARG_OF_PERICENTER":84.5938,"MEAN_ANOMALY":246.6638,"EPHEMERIS_TYPE":0,"CLASSIFICATION_TYPE":"U","NORAD_CAT_ID":63733,"ELEMENT_SET_NO":999,"REV_AT_EPOCH":276,"BSTAR":0.0078908,"MEAN_MOTION_DOT":0.00060773,"MEAN_MOTION_DDOT":0},{"OBJECT_NAME":"KUIPER-00019","OBJECT_ID":"2025-088L","EPOCH":"2026-03-03T04:09:23.431104","MEAN_MOTION":14.79937809,"ECCENTRICITY":6.1e-5,"INCLINATION":51.9004,"RA_OF_ASC_NODE":127.9117,"ARG_OF_PERICENTER":114.7359,"MEAN_ANOMALY":245.3667,"EPHEMERIS_TYPE":0,"CLASSIFICATION_TYPE":"U","NORAD_CAT_ID":63734,"ELEMENT_SET_NO":999,"REV_AT_EPOCH":4654,"BSTAR":-6.2931e-5,"MEAN_MOTION_DOT":-7.01e-6,"MEAN_MOTION_DDOT":0},{"OBJECT_NAME":"KUIPER-00020","OBJECT_ID":"2025-088M","EPOCH":"2026-03-02T15:05:59.956224","MEAN_MOTION":14.79876089,"ECCENTRICITY":0.00066874,"INCLINATION":51.9012,"RA_OF_ASC_NODE":134.3098,"ARG_OF_PERICENTER":62.9051,"MEAN_ANOMALY":297.2593,"EPHEMERIS_TYPE":0,"CLASSIFICATION_TYPE":"U","NORAD_CAT_ID":63735,"ELEMENT_SET_NO":999,"REV_AT_EPOCH":4661,"BSTAR":0.00035819033,"MEAN_MOTION_DOT":2.506e-5,"MEAN_MOTION_DDOT":0},{"OBJECT_NAME":"KUIPER-00021","OBJECT_ID":"2025-088N","EPOCH":"2026-03-02T11:49:15.364416","MEAN_MOTION":14.79955913,"ECCENTRICITY":0.00033549,"INCLINATION":51.9001,"RA_OF_ASC_NODE":135.9098,"ARG_OF_PERICENTER":67.9058,"MEAN_ANOMALY":292.2261,"EPHEMERIS_TYPE":0,"CLASSIFICATION_TYPE":"U","NORAD_CAT_ID":63736,"ELEMENT_SET_NO":999,"REV_AT_EPOCH":4641,"BSTAR":0.0028484825,"MEAN_MOTION_DOT":0.00021576,"MEAN_MOTION_DDOT":0},{"OBJECT_NAME":"KUIPER-00023","OBJECT_ID":"2025-088P","EPOCH":"2026-03-03T04:00:02.181888","MEAN_MOTION":14.79927308,"ECCENTRICITY":0.0008298,"INCLINATION":51.8998,"RA_OF_ASC_NODE":134.3886,"ARG_OF_PERICENTER":78.5241,"MEAN_ANOMALY":281.6652,"EPHEMERIS_TYPE":0,"CLASSIFICATION_TYPE":"U","NORAD_CAT_ID":63737,"ELEMENT_SET_NO":999,"REV_AT_EPOCH":4679,"BSTAR":-0.00062272,"MEAN_MOTION_DOT":-4.969e-5,"MEAN_MOTION_DDOT":0},{"OBJECT_NAME":"KUIPER-00024","OBJECT_ID":"2025-088Q","EPOCH":"2026-03-03T04:19:30.887040","MEAN_MOTION":14.79933727,"ECCENTRICITY":7.21e-5,"INCLINATION":51.9021,"RA_OF_ASC_NODE":121.8959,"ARG_OF_PERICENTER":85.7187,"MEAN_ANOMALY":274.3858,"EPHEMERIS_TYPE":0,"CLASSIFICATION_TYPE":"U","NORAD_CAT_ID":63738,"ELEMENT_SET_NO":999,"REV_AT_EPOCH":4709,"BSTAR":5.2364e-5,"MEAN_MOTION_DOT":1.78e-6,"MEAN_MOTION_DDOT":0},{"OBJECT_NAME":"KUIPER-00025","OBJECT_ID":"2025-088R","EPOCH":"2026-03-03T00:00:01.999296","MEAN_MOTION":14.83427556,"ECCENTRICITY":1.41e-5,"INCLINATION":51.9019,"RA_OF_ASC_NODE":131.0999,"ARG_OF_PERICENTER":59.2032,"MEAN_ANOMALY":164.9649,"EPHEMERIS_TYPE":0,"CLASSIFICATION_TYPE":"U","NORAD_CAT_ID":63739,"ELEMENT_SET_NO":999,"REV_AT_EPOCH":438,"BSTAR":0.0029878,"MEAN_MOTION_DOT":0.00024631,"MEAN_MOTION_DDOT":0},{"OBJECT_NAME":"KUIPER-00027","OBJECT_ID":"2025-088S","EPOCH":"2026-03-03T04:15:35.270784","MEAN_MOTION":14.79916262,"ECCENTRICITY":7.73e-5,"INCLINATION":51.9011,"RA_OF_ASC_NODE":124.3814,"ARG_OF_PERICENTER":91.967,"MEAN_ANOMALY":268.1381,"EPHEMERIS_TYPE":0,"CLASSIFICATION_TYPE":"U","NORAD_CAT_ID":63740,"ELEMENT_SET_NO":999,"REV_AT_EPOCH":4665,"BSTAR":-0.00031531,"MEAN_MOTION_DOT":-2.623e-5,"MEAN_MOTION_DDOT":0}]
